OBJECT_NAME,OBJECT_ID,EPOCH,MEAN_MOTION,ECCENTRICITY,INCLINATION,RA_OF_ASC_NODE,ARG_OF_PERICENTER,MEAN_ANOMALY,EPHEMERIS_TYPE,CLASSIFICATION_TYPE,NORAD_CAT_ID,ELEMENT_SET_NO,REV_AT_EPOCH,BSTAR,MEAN_MOTION_DOT,MEAN_MOTION_DDOT
DMSP 5D-3 F16 (USA 172),2003-048A,2026-06-16T07:21:08.938080,14.14483140,.00077205,98.9891,191.1289,142.5129,230.7124,0,U,28054,999,16936,.20323948E-4,-.6E-7,0
METEOSAT-9 (MSG-2),2005-049B,2026-06-15T20:07:12.874944,1.00271428,.00015787,9.3585,54.1816,343.5552,213.8225,0,U,28912,999,698,0,.118E-5,0
DMSP 5D-3 F17 (USA 191),2006-050A,2026-06-16T06:00:38.826432,14.14993026,.00111911,98.7378,173.8397,61.8613,298.3690,0,U,29522,999,1229,.29181049E-4,.13E-6,0
FENGYUN 3A,2008-026A,2026-06-16T06:31:41.723616,14.19570933,.00095537,98.6883,108.1222,126.0638,234.1425,0,U,32958,999,93527,.42426618E-4,.46E-6,0
GOES 14,2009-033A,2026-06-16T05:08:10.449312,1.00111069,.00017177,1.6879,83.0537,11.0805,29.7875,0,U,35491,999,658,0,-.289E-5,0
DMSP 5D-3 F18 (USA 210),2009-057A,2026-06-16T07:01:10.500960,14.14896298,.00098826,98.9038,148.0635,252.4302,107.5792,0,U,35951,999,85946,.13730078E-3,.221E-5,0
EWS-G2 (GOES 15),2010-008A,2026-06-16T04:12:21.902400,1.00275834,.00054133,1.2753,82.8735,42.3765,266.0013,0,U,36411,999,5962,0,.16E-6,0
COMS 1,2010-032A,2026-06-16T00:32:29.743872,0.99162472,.0011457,4.8022,75.3676,11.7530,263.3984,0,U,36744,999,5107,0,.42E-6,0
FENGYUN 3B,2010-059A,2026-06-16T07:31:42.484224,14.14840995,.00218451,98.9621,213.3244,186.4654,234.5070,0,U,37214,999,80730,-.64920579E-4,-.171E-5,0
SUOMI NPP,2011-061A,2026-06-16T06:47:53.010816,14.19517179,.00015879,98.7953,108.1655,9.0005,351.1199,0,U,37849,999,75831,.46937852E-4,.55E-6,0
METEOSAT-10 (MSG-3),2012-035B,2026-06-15T21:37:03.141984,1.00276584,.00014525,4.6688,61.0268,328.0735,199.6782,0,U,38552,999,5084,0,-.6E-7,0
METOP-B,2012-049A,2026-06-16T06:35:20.061600,14.21432528,.0002289,98.6505,218.7919,21.9428,338.1847,0,U,38771,999,71313,.62920178E-4,.94E-6,0
INSAT-3D,2013-038B,2026-06-15T22:13:50.083968,1.00269680,.00005506,1.9231,82.5542,308.4460,336.1773,0,U,39216,999,4706,0,-.34E-5,0
FENGYUN 3C,2013-052A,2026-06-16T06:23:37.497408,14.15754837,.00153034,98.4986,141.1835,30.1751,330.0302,0,U,39260,999,65843,.55067901E-4,.67E-6,0
METEOR-M 2,2014-037A,2026-06-16T05:31:58.021824,14.21461018,.00068258,98.5108,143.0029,46.8131,313.3616,0,U,40069,999,61918,.22642389E-4,.7E-7,0
HIMAWARI-8,2014-060A,2026-06-16T07:13:43.922784,1.00271849,.00009746,0.0156,353.3646,94.9624,65.3437,0,U,40267,999,4275,0,-.276E-5,0
FENGYUN 2G,2014-090A,2026-06-15T22:18:38.251296,1.00272763,.0004081,5.6350,72.8268,156.1097,109.6095,0,U,40367,999,4198,0,-.306E-5,0
METEOSAT-11 (MSG-4),2015-034A,2026-06-16T02:47:38.433120,1.00280036,.00017576,3.1987,71.1166,11.0403,233.7798,0,U,40732,999,720,0,.63E-6,0
ELEKTRO-L 2,2015-074A,2026-06-15T23:15:26.836704,1.00270394,.00010479,6.6903,70.5362,244.2830,283.7788,0,U,41105,999,3849,0,-.122E-5,0
SENTINEL-3A,2016-011A,2026-06-16T07:19:00.545088,14.26739781,.00013959,98.6249,234.7012,102.3557,257.7780,0,U,41335,999,53793,.58132043E-4,.97E-6,0
INSAT-3DR,2016-054A,2026-06-16T03:06:06.662592,1.00270809,.00106302,0.1039,86.4858,187.3768,111.0409,0,U,41752,999,3580,0,-.77E-6,0
HIMAWARI-9,2016-064A,2026-06-16T07:13:43.900320,1.00270257,.00008738,0.0212,275.4820,212.4750,25.8119,0,U,41836,999,3520,0,-.276E-5,0
GOES 16,2016-071A,2026-06-16T05:00:38.648160,1.00270954,.00002154,0.3389,85.5174,303.6917,205.7415,0,U,41866,999,3509,0,-.91E-6,0
FENGYUN 4A,2016-077A,2026-06-15T23:54:53.045856,1.00269112,.00087321,2.3189,80.2906,153.3687,153.1019,0,U,41882,999,3491,0,-.358E-5,0
CYGFM05,2016-078A,2026-06-15T16:54:21.250368,15.56617530,.00068442,34.9572,270.4087,136.1338,223.9930,0,U,41884,999,52852,.27029742E-3,.19899E-3,0
CYGFM04,2016-078B,2026-06-15T14:46:35.363712,15.61441990,.00064765,34.9319,238.7656,180.9512,179.1202,0,U,41885,999,52875,.28651099E-3,.25374E-3,0
CYGFM02,2016-078C,2026-06-15T20:59:27.422016,15.64432101,.0007525,34.9396,231.6122,184.3737,175.6924,0,U,41886,999,52896,.27484E-3,.27394E-3,0
CYGFM01,2016-078D,2026-06-15T16:39:02.122848,15.57292832,.00066272,34.9401,271.5487,129.5981,230.5329,0,U,41887,999,52847,.28123088E-3,.2124E-3,0
CYGFM08,2016-078E,2026-06-15T21:52:59.098368,15.59963222,.0008217,34.9426,249.7155,165.1852,194.9115,0,U,41888,999,52877,.28176E-3,.23574E-3,0
CYGFM07,2016-078G,2026-06-15T14:45:40.283712,15.60051101,.00068928,34.9439,240.0344,179.5306,180.5427,0,U,41890,999,52875,.27922853E-3,.23429E-3,0
CYGFM03,2016-078H,2026-06-15T21:44:38.942592,15.60055421,.0006372,34.9394,240.0351,170.2723,189.8127,0,U,41891,999,52877,.28065E-3,.23549E-3,0
